{"type": "FeatureCollection", "features": [ {"type": "Feature", "properties": {"norad_id": 34472, "name": "COSMOS 2251 DEB", "group": "cosmos-2251-debris", "lat": -42.39150632900709, "lon": 64.75489500181041, "alt_km": 1068.568179066122, "timestamp": "2025-12-23T20:42:37.470457+00:00", "meta": {"OBJECT_NAME": "COSMOS 2251 DEB", "OBJECT_ID": "1993-036TR", "EPOCH": "2025-12-21T16:22:23.941920", "MEAN_MOTION": 13.70344234, "ECCENTRICITY": 0.03278312, "INCLINATION": 74.0843, "RA_OF_ASC_NODE": 83.4375, "ARG_OF_PERICENTER": 212.5022, "MEAN_ANOMALY": 145.5535, "EPHEMERIS_TYPE": 0, "CLASSIFICATION_TYPE": "U", "NORAD_CAT_ID": 34472, "ELEMENT_SET_NO": 999, "REV_AT_EPOCH": 83849, "BSTAR": 0.00054867639, "MEAN_MOTION_DOT": 6.85e-06, "MEAN_MOTION_DDOT": 0}, "tle": {"line1": "1 34472U 93036TR  25355.68222155  .00000685  00000+0  54868-3 0  9994", "line2": "2 34472  74.0843  83.4375 0327831 212.5022 145.5535 13.70344234838497"}}, "geometry": {"type": "Point", "coordinates": [64.75489500181041, -42.39150632900709]}}, {"type": "Feature", "properties": {"norad_id": 34474, "name": "COSMOS 2251 DEB", "group": "cosmos-2251-debris", "lat": 73.77527413469004, "lon": 47.9830076662359, "alt_km": 824.420587702848, "timestamp": "2025-12-23T20:42:37.470467+00:00", "meta": {"OBJECT_NAME": "COSMOS 2251 DEB", "OBJECT_ID": "1993-036TT", "EPOCH": "2025-12-23T00:07:38.347680", "MEAN_MOTION": 14.0649295, "ECCENTRICITY": 0.01992475, "INCLINATION": 74.0792, "RA_OF_ASC_NODE": 308.256, "ARG_OF_PERICENTER": 19.6039, "MEAN_ANOMALY": 50.5059, "EPHEMERIS_TYPE": 0, "CLASSIFICATION_TYPE": "U", "NORAD_CAT_ID": 34474, "ELEMENT_SET_NO": 999, "REV_AT_EPOCH": 85653, "BSTAR": 0.0024300166, "MEAN_MOTION_DOT": 4.79e-05, "MEAN_MOTION_DDOT": 0}, "tle": {"line1": "1 34474U 93036TT  25357.00530495  .00004790  00000+0  24300-2 0  9991", "line2": "2 34474  74.0792 308.2560 0199247  19.6039  50.5059 14.06492950856538"}}, "geometry": {"type": "Point", "coordinates": [47.9830076662359, 73.77527413469004]}}, {"type": "Feature", "properties": {"norad_id": 34476, "name": "COSMOS 2251 DEB", "group": "cosmos-2251-debris", "lat": 14.959165048281736, "lon": -120.64041751111124, "alt_km": 1056.7854010662259, "timestamp": "2025-12-23T20:42:37.470477+00:00", "meta": {"OBJECT_NAME": "COSMOS 2251 DEB", "OBJECT_ID": "1993-036TV", "EPOCH": "2025-12-23T04:15:02.567520", "MEAN_MOTION": 13.82132648, "ECCENTRICITY": 0.03222242, "INCLINATION": 74.0063, "RA_OF_ASC_NODE": 64.9101, "ARG_OF_PERICENTER": 282.3311, "MEAN_ANOMALY": 74.192, "EPHEMERIS_TYPE": 0, "CLASSIFICATION_TYPE": "U", "NORAD_CAT_ID": 34476, "ELEMENT_SET_NO": 999, "REV_AT_EPOCH": 83782, "BSTAR": 0.0037798313, "MEAN_MOTION_DOT": 6.03e-05, "MEAN_MOTION_DDOT": 0}, "tle": {"line1": "1 34476U 93036TV  25357.17711305  .00006030  00000+0  37798-2 0  9996", "line2": "2 34476  74.0063  64.9101 0322224 282.3311  74.1920 13.82132648837821"}}, "geometry": {"type": "Point", "coordinates": [-120.64041751111124, 14.959165048281736]}}, {"type": "Feature", "properties": {"norad_id": 34477, "name": "COSMOS 2251 DEB", "group": "cosmos-2251-debris", "lat": 5.10461038748991, "lon": -133.16631404840177, "alt_km": 676.5673796276369, "timestamp": "2025-12-23T20:42:37.470488+00:00", "meta": {"OBJECT_NAME": "COSMOS 2251 DEB", "OBJECT_ID": "1993-036TW", "EPOCH": "2025-12-23T05:20:15.170784", "MEAN_MOTION": 14.56932475, "ECCENTRICITY": 0.00767359, "INCLINATION": 73.9783, "RA_OF_ASC_NODE": 49.5247, "ARG_OF_PERICENTER": 234.7419, "MEAN_ANOMALY": 182.3647, "EPHEMERIS_TYPE": 0, "CLASSIFICATION_TYPE": "U", "NORAD_CAT_ID": 34477, "ELEMENT_SET_NO": 999, "REV_AT_EPOCH": 88778, "BSTAR": 0.00074708597, "MEAN_MOTION_DOT": 3.461e-05, "MEAN_MOTION_DDOT": 0}, "tle": {"line1": "1 34477U 93036TW  25357.22239781  .00003461  00000+0  74709-3 0  9995", "line2": "2 34477  73.9783  49.5247 0076735 234.7419 182.3647 14.56932475887788"}}, "geometry": {"type": "Point", "coordinates": [-133.16631404840177, 5.10461038748991]}}, {"type": "Feature", "properties": {"norad_id": 34478, "name": "COSMOS 2251 DEB", "group": "cosmos-2251-debris", "lat": -42.132752042142116, "lon": -31.017209303357482, "alt_km": 555.1965775396411, "timestamp": "2025-12-23T20:42:37.470498+00:00", "meta": {"OBJECT_NAME": "COSMOS 2251 DEB", "OBJECT_ID": "1993-036TX", "EPOCH": "2025-12-22T08:36:26.154720", "MEAN_MOTION": 15.08764691, "ECCENTRICITY": 0.00339347, "INCLINATION": 74.041, "RA_OF_ASC_NODE": 347.083, "ARG_OF_PERICENTER": 205.4144, "MEAN_ANOMALY": 222.4726, "EPHEMERIS_TYPE": 0, "CLASSIFICATION_TYPE": "U", "NORAD_CAT_ID": 34478, "ELEMENT_SET_NO": 999, "REV_AT_EPOCH": 89118, "BSTAR": 0.0033773654, "MEAN_MOTION_DOT": 0.00054141, "MEAN_MOTION_DDOT": 0}, "tle": {"line1": "1 34478U 93036TX  25356.35863605  .00054141  00000+0  33774-2 0  9994", "line2": "2 34478  74.0410 347.0830 0033934 205.4144 222.4726 15.08764691891180"}}, "geometry": {"type": "Point", "coordinates": [-31.017209303357482, -42.132752042142116]}}, {"type": "Feature", "properties": {"norad_id": 34481, "name": "COSMOS 2251 DEB", "group": "cosmos-2251-debris", "lat": 61.138357362659484, "lon": -178.3420764224713, "alt_km": 777.3291534745913, "timestamp": "2025-12-23T20:42:37.470508+00:00", "meta": {"OBJECT_NAME": "COSMOS 2251 DEB", "OBJECT_ID": "1993-036UA", "EPOCH": "2025-12-22T19:35:34.279008", "MEAN_MOTION": 14.32584619, "ECCENTRICITY": 0.00703456, "INCLINATION": 73.9791, "RA_OF_ASC_NODE": 34.995, "ARG_OF_PERICENTER": 207.45, "MEAN_ANOMALY": 272.3342, "EPHEMERIS_TYPE": 0, "CLASSIFICATION_TYPE": "U", "NORAD_CAT_ID": 34481, "ELEMENT_SET_NO": 999, "REV_AT_EPOCH": 87593, "BSTAR": 0.00052794174, "MEAN_MOTION_DOT": 1.447e-05, "MEAN_MOTION_DDOT": 0}, "tle": {"line1": "1 34481U 93036UA  25356.81636897  .00001447  00000+0  52794-3 0  9995", "line2": "2 34481  73.9791  34.9950 0070345 207.4500 272.3342 14.32584619875933"}}, "geometry": {"type": "Point", "coordinates": [-178.3420764224713, 61.138357362659484]}}, {"type": "Feature", "properties": {"norad_id": 34482, "name": "COSMOS 2251 DEB", "group": "cosmos-2251-debris", "lat": -43.127703396437376, "lon": -173.50112332858492, "alt_km": 651.2228330101234, "timestamp": "2025-12-23T20:42:37.470518+00:00", "meta": {"OBJECT_NAME": "COSMOS 2251 DEB", "OBJECT_ID": "1993-036UB", "EPOCH": "2025-12-23T00:13:02.883360", "MEAN_MOTION": 14.69368319, "ECCENTRICITY": 0.00444168, "INCLINATION": 74.036, "RA_OF_ASC_NODE": 203.7053, "ARG_OF_PERICENTER": 261.8184, "MEAN_ANOMALY": 217.6247, "EPHEMERIS_TYPE": 0, "CLASSIFICATION_TYPE": "U", "NORAD_CAT_ID": 34482, "ELEMENT_SET_NO": 999, "REV_AT_EPOCH": 88338, "BSTAR": 0.0017930749, "MEAN_MOTION_DOT": 0.00010746, "MEAN_MOTION_DDOT": 0}, "tle": {"line1": "1 34482U 93036UB  25357.00906115  .00010746  00000+0  17931-2 0  9996", "line2": "2 34482  74.0360 203.7053 0044416 261.8184 217.6247 14.69368319883381"}}, "geometry": {"type": "Point", "coordinates": [-173.50112332858492, -43.127703396437376]}}, {"type": "Feature", "properties": {"norad_id": 34544, "name": "COSMOS 2251 DEB", "group": "cosmos-2251-debris", "lat": -57.439866703639986, "lon": 159.1583263044057, "alt_km": 1032.6319386948599, "timestamp": "2025-12-23T20:42:37.470528+00:00", "meta": {"OBJECT_NAME": "COSMOS 2251 DEB", "OBJECT_ID": "1993-036UE", "EPOCH": "2025-12-21T21:30:37.256256", "MEAN_MOTION": 13.54670498, "ECCENTRICITY": 0.03836913, "INCLINATION": 73.9139, "RA_OF_ASC_NODE": 189.2056, "ARG_OF_PERICENTER": 215.9783, "MEAN_ANOMALY": 210.8549, "EPHEMERIS_TYPE": 0, "CLASSIFICATION_TYPE": "U", "NORAD_CAT_ID": 34544, "ELEMENT_SET_NO": 999, "REV_AT_EPOCH": 83006, "BSTAR": 0.00039407504, "MEAN_MOTION_DOT": 4.09e-06, "MEAN_MOTION_DDOT": 0}, "tle": {"line1": "1 34544U 93036UE  25355.89626454  .00000409  00000+0  39408-3 0  9994", "line2": "2 34544  73.9139 189.2056 0383691 215.9783 210.8549 13.54670498830063"}}, "geometry": {"type": "Point", "coordinates": [159.1583263044057, -57.439866703639986]}}, {"type": "Feature", "properties": {"norad_id": 34546, "name": "COSMOS 2251 DEB", "group": "cosmos-2251-debris", "lat": -73.32756186415315, "lon": 155.46659911505895, "alt_km": 733.3720470370799, "timestamp": "2025-12-23T20:42:37.470549+00:00", "meta": {"OBJECT_NAME": "COSMOS 2251 DEB", "OBJECT_ID": "1993-036UG", "EPOCH": "2025-12-22T10:28:49.872576", "MEAN_MOTION": 14.45448917, "ECCENTRICITY": 0.00220526, "INCLINATION": 74.0296, "RA_OF_ASC_NODE": 231.1051, "ARG_OF_PERICENTER": 303.8094, "MEAN_ANOMALY": 112.4927, "EPHEMERIS_TYPE": 0, "CLASSIFICATION_TYPE": "U", "NORAD_CAT_ID": 34546, "ELEMENT_SET_NO": 999, "REV_AT_EPOCH": 88166, "BSTAR": 0.00048545391, "MEAN_MOTION_DOT": 1.688e-05, "MEAN_MOTION_DDOT": 0}, "tle": {"line1": "1 34546U 93036UG  25356.43668834  .00001688  00000+0  48545-3 0  9997", "line2": "2 34546  74.0296 231.1051 0022052 303.8094 112.4927 14.45448917881665"}}, "geometry": {"type": "Point", "coordinates": [155.46659911505895, -73.32756186415315]}}, {"type": "Feature", "properties": {"norad_id": 34547, "name": "COSMOS 2251 DEB", "group": "cosmos-2251-debris", "lat": 68.39347869359739, "lon": -147.2297984165056, "alt_km": 638.844281922492, "timestamp": "2025-12-23T20:42:37.470561+00:00", "meta": {"OBJECT_NAME": "COSMOS 2251 DEB", "OBJECT_ID": "1993-036UH", "EPOCH": "2025-12-22T16:31:04.600416", "MEAN_MOTION": 14.72546712, "ECCENTRICITY": 0.00162588, "INCLINATION": 74.032, "RA_OF_ASC_NODE": 81.3553, "ARG_OF_PERICENTER": 159.497, "MEAN_ANOMALY": 200.6858, "EPHEMERIS_TYPE": 0, "CLASSIFICATION_TYPE": "U", "NORAD_CAT_ID": 34547, "ELEMENT_SET_NO": 999, "REV_AT_EPOCH": 88668, "BSTAR": 0.0017982346, "MEAN_MOTION_DOT": 0.00011442, "MEAN_MOTION_DDOT": 0}, "tle": {"line1": "1 34547U 93036UH  25356.68824769  .00011442  00000+0  17982-2 0  9995", "line2": "2 34547  74.0320  81.3553 0016258 159.4970 200.6858 14.72546712886687"}}, "geometry": {"type": "Point", "coordinates": [-147.2297984165056, 68.39347869359739]}}]}